NOAA 1 [-]              
1 04793U 70106A   17295.25577932 -.00000032  00000-0  81862-4 0  9996
2 04793 101.7881 359.6640 0031765  13.5685  29.2678 12.53982465145081
NOAA 2 [-]              
1 06235U 72082A   17295.51149809 -.00000039  00000-0  33237-4 0  9991
2 06235 101.7000 258.6037 0004245  97.1810   9.8428 12.53098687 59395
NOAA 3 [-]              
1 06920U 73086A   17295.53395566 -.00000042  00000-0  20772-4 0  9996
2 06920 101.9572 262.8139 0006179 197.5547 272.8860 12.40351295990335
NOAA 4 [-]              
1 07529U 74089A   17295.50983955 -.00000034  00000-0  63341-4 0  9998
2 07529 101.6584 261.8867 0009013 131.3088 337.9967 12.53115994963984
NOAA 5 [-]              
1 09057U 76077A   17295.47041509 -.00000056  00000-0 -94977-4 0  9995
2 09057 101.8452 273.4013 0010249  51.4146  67.1287 12.37761278863755
TIROS N [P]             
1 11060U 78096A   17294.76500758  .00000017  00000-0  29938-4 0  9992
2 11060  98.8797 344.9279 0010211 345.2184  14.8690 14.18172231230685
NOAA 6 [P]              
1 11416U 79057A   17295.50474338  .00000041  00000-0  30757-4 0  9990
2 11416  98.5908 282.3604 0009436 228.6125 131.4249 14.33443127998313
NOAA 7 [-]              
1 12553U 81059A   17295.46971694  .00000002  00000-0  23810-4 0  9999
2 12553  99.0648 279.5691 0010505 255.1230 215.9698 14.17226621877365
NOAA 8 [-]              
1 13923U 83022A   17295.47770883  .00000031  00000-0  29323-4 0  9998
2 13923  98.5242 282.6048 0015863 145.7753 214.4455 14.28609233800062
NOAA 9 [P]              
1 15427U 84123A   17295.46051535  .00000027  00000-0  36081-4 0  9991
2 15427  98.8153 238.0095 0014260 320.4637 146.0350 14.16014609696383
NOAA 10 [-]             
1 16969U 86073A   17295.50378392  .00000000  00000-0  17178-4 0  9994
2 16969  98.4626 300.2239 0011020 261.1117 250.6025 14.28022640618600
NOAA 11 [-]             
1 19531U 88089A   17295.38293170  .00000006  00000-0  24304-4 0  9992
2 19531  98.5360 348.5436 0011830  37.8921 322.3084 14.15215690500740
NOAA 12 [-]             
1 21263U 91032A   17295.45226029 -.00000008  00000-0  14708-4 0  9996
2 21263  98.5560 316.5516 0012535 270.3282  89.6462 14.25852276374861
NOAA 13 [-]             
1 22739U 93050A   17295.24354916 -.00000009  00000-0  17537-4 0  9995
2 22739  98.5451 338.3034 0009858 165.1711 194.9753 14.12692047247370
NOAA 14 [-]             
1 23455U 94089A   17295.39692999 -.00000005  00000-0  19960-4 0  9994
2 23455  98.6759   6.7598 0010043 147.4824 212.6969 14.14104955176810
NOAA 15 [B]             
1 25338U 98030A   17295.51275543  .00000013  00000-0  24173-4 0  9992
2 25338  98.7805 306.6695 0010317 191.7188 168.3752 14.25821809 11141
NOAA 16 [-]             
1 26536U 00055A   17295.44381167  .00000004  00000-0  25757-4 0  9994
2 26536  98.8449   6.8043 0009858 325.3740  34.6789 14.13188363880877
NOAA 17 [-]             
1 27453U 02032A   17295.49414760  .00000002  00000-0  18727-4 0  9998
2 27453  98.4513 255.1690 0011505 181.7703 178.3438 14.24997452796890
NOAA 18 [B]             
1 28654U 05018A   17295.50151811  .00000035  00000-0  44023-4 0  9990
2 28654  99.1741 320.7774 0015256  76.1575 284.1292 14.12353775640239
NOAA 19 [+]             
1 33591U 09005A   17295.51635463  .00000076  00000-0  66246-4 0  9993
2 33591  99.1096 264.2500 0013008 275.3643  84.6043 14.12222001448622
NPP [+]                 
1 37849U 11061A   17294.88264293  .00000025  00000-0  32471-4 0  9993
2 37849  98.7109 231.8416 0001484 103.7310 292.4067 14.19550140310075
